{"type": "FeatureCollection", "features": [ {"type": "Feature", "properties": {"norad_id": 30110, "name": "FENGYUN 1C DEB", "group": "fengyun-1c-debris", "lat": -14.843320772141778, "lon": 105.55921466714716, "alt_km": 860.7867595844382, "timestamp": "2025-12-21T03:56:51.110298+00:00", "meta": {"OBJECT_NAME": "FENGYUN 1C DEB", "OBJECT_ID": "1999-025RP", "EPOCH": "2025-12-20T19:09:55.120032", "MEAN_MOTION": 13.56227998, "ECCENTRICITY": 0.0267321, "INCLINATION": 98.9077, "RA_OF_ASC_NODE": 102.8459, "ARG_OF_PERICENTER": 332.2773, "MEAN_ANOMALY": 26.433, "EPHEMERIS_TYPE": 0, "CLASSIFICATION_TYPE": "U", "NORAD_CAT_ID": 30110, "ELEMENT_SET_NO": 999, "REV_AT_EPOCH": 93624, "BSTAR": 0.00023109, "MEAN_MOTION_DOT": 1.64e-06, "MEAN_MOTION_DDOT": 0}, "tle": {"line1": "1 30110U 99025RP  25354.79855463  .00000164  00000+0  23109-3 0  9994", "line2": "2 30110  98.9077 102.8459 0267321 332.2773  26.4330 13.56227998936248"}}, "geometry": {"type": "Point", "coordinates": [105.55921466714716, -14.843320772141778]}}, {"type": "Feature", "properties": {"norad_id": 30112, "name": "FENGYUN 1C DEB", "group": "fengyun-1c-debris", "lat": 11.709836462774247, "lon": -32.38510590057423, "alt_km": 770.9790650217865, "timestamp": "2025-12-21T03:56:51.110307+00:00", "meta": {"OBJECT_NAME": "FENGYUN 1C DEB", "OBJECT_ID": "1999-025RR", "EPOCH": "2025-12-19T21:30:03.695040", "MEAN_MOTION": 14.22241328, "ECCENTRICITY": 0.0201885, "INCLINATION": 99.282, "RA_OF_ASC_NODE": 328.2217, "ARG_OF_PERICENTER": 87.3701, "MEAN_ANOMALY": 275.0566, "EPHEMERIS_TYPE": 0, "CLASSIFICATION_TYPE": "U", "NORAD_CAT_ID": 30112, "ELEMENT_SET_NO": 999, "REV_AT_EPOCH": 97684, "BSTAR": 0.00040339, "MEAN_MOTION_DOT": 1.052e-05, "MEAN_MOTION_DDOT": 0}, "tle": {"line1": "1 30112U 99025RR  25353.89587610  .00001052  00000+0  40339-3 0  9993", "line2": "2 30112  99.2820 328.2217 0201885  87.3701 275.0566 14.22241328976848"}}, "geometry": {"type": "Point", "coordinates": [-32.38510590057423, 11.709836462774247]}}, {"type": "Feature", "properties": {"norad_id": 30113, "name": "FENGYUN 1C DEB", "group": "fengyun-1c-debris", "lat": -53.24646529887188, "lon": 15.583472312181126, "alt_km": 754.1626973932935, "timestamp": "2025-12-21T03:56:51.110316+00:00", "meta": {"OBJECT_NAME": "FENGYUN 1C DEB", "OBJECT_ID": "1999-025RS", "EPOCH": "2025-12-20T12:13:07.334688", "MEAN_MOTION": 14.45417894, "ECCENTRICITY": 0.00405514, "INCLINATION": 99.0371, "RA_OF_ASC_NODE": 207.1905, "ARG_OF_PERICENTER": 339.4868, "MEAN_ANOMALY": 86.8458, "EPHEMERIS_TYPE": 0, "CLASSIFICATION_TYPE": "U", "NORAD_CAT_ID": 30113, "ELEMENT_SET_NO": 999, "REV_AT_EPOCH": 98021, "BSTAR": 0.0012503045, "MEAN_MOTION_DOT": 4.397e-05, "MEAN_MOTION_DDOT": 0}, "tle": {"line1": "1 30113U 99025RS  25354.50911267  .00004397  00000+0  12503-2 0  9998", "line2": "2 30113  99.0371 207.1905 0040551 339.4868  86.8458 14.45417894980215"}}, "geometry": {"type": "Point", "coordinates": [15.583472312181126, -53.24646529887188]}}, {"type": "Feature", "properties": {"norad_id": 30114, "name": "FENGYUN 1C DEB", "group": "fengyun-1c-debris", "lat": 18.73568870699953, "lon": -5.706035580578669, "alt_km": 846.9940558703183, "timestamp": "2025-12-21T03:56:51.110325+00:00", "meta": {"OBJECT_NAME": "FENGYUN 1C DEB", "OBJECT_ID": "1999-025RT", "EPOCH": "2025-12-20T18:29:24.477216", "MEAN_MOTION": 14.09657513, "ECCENTRICITY": 0.0082344, "INCLINATION": 98.7468, "RA_OF_ASC_NODE": 356.9043, "ARG_OF_PERICENTER": 97.3289, "MEAN_ANOMALY": 84.0225, "EPHEMERIS_TYPE": 0, "CLASSIFICATION_TYPE": "U", "NORAD_CAT_ID": 30114, "ELEMENT_SET_NO": 999, "REV_AT_EPOCH": 97267, "BSTAR": 0.00018804, "MEAN_MOTION_DOT": 2.98e-06, "MEAN_MOTION_DDOT": 0}, "tle": {"line1": "1 30114U 99025RT  25354.77042219  .00000298  00000+0  18804-3 0  9997", "line2": "2 30114  98.7468 356.9043 0082344  97.3289  84.0225 14.09657513972675"}}, "geometry": {"type": "Point", "coordinates": [-5.706035580578669, 18.73568870699953]}}, {"type": "Feature", "properties": {"norad_id": 30115, "name": "FENGYUN 1C DEB", "group": "fengyun-1c-debris", "lat": 36.90968929599997, "lon": 15.688137693016305, "alt_km": 774.7511983337654, "timestamp": "2025-12-21T03:56:51.110334+00:00", "meta": {"OBJECT_NAME": "FENGYUN 1C DEB", "OBJECT_ID": "1999-025RU", "EPOCH": "2025-12-20T16:31:21.055296", "MEAN_MOTION": 14.19806388, "ECCENTRICITY": 0.0067423, "INCLINATION": 98.6218, "RA_OF_ASC_NODE": 21.7679, "ARG_OF_PERICENTER": 37.9323, "MEAN_ANOMALY": 87.7238, "EPHEMERIS_TYPE": 0, "CLASSIFICATION_TYPE": "U", "NORAD_CAT_ID": 30115, "ELEMENT_SET_NO": 999, "REV_AT_EPOCH": 97441, "BSTAR": 0.00068468, "MEAN_MOTION_DOT": 1.442e-05, "MEAN_MOTION_DDOT": 0}, "tle": {"line1": "1 30115U 99025RU  25354.68843814  .00001442  00000+0  68468-3 0  9991", "line2": "2 30115  98.6218  21.7679 0067423  37.9323  87.7238 14.19806388974415"}}, "geometry": {"type": "Point", "coordinates": [15.688137693016305, 36.90968929599997]}}, {"type": "Feature", "properties": {"norad_id": 30116, "name": "FENGYUN 1C DEB", "group": "fengyun-1c-debris", "lat": -68.7415097099162, "lon": -138.34182112494196, "alt_km": 795.0462312307491, "timestamp": "2025-12-21T03:56:51.110342+00:00", "meta": {"OBJECT_NAME": "FENGYUN 1C DEB", "OBJECT_ID": "1999-025RV", "EPOCH": "2025-12-20T18:58:06.613248", "MEAN_MOTION": 14.29331484, "ECCENTRICITY": 0.0020668, "INCLINATION": 99.3974, "RA_OF_ASC_NODE": 66.4485, "ARG_OF_PERICENTER": 317.555, "MEAN_ANOMALY": 169.4348, "EPHEMERIS_TYPE": 0, "CLASSIFICATION_TYPE": "U", "NORAD_CAT_ID": 30116, "ELEMENT_SET_NO": 999, "REV_AT_EPOCH": 97624, "BSTAR": 0.00090416, "MEAN_MOTION_DOT": 2.257e-05, "MEAN_MOTION_DDOT": 0}, "tle": {"line1": "1 30116U 99025RV  25354.79035432  .00002257  00000+0  90416-3 0  9996", "line2": "2 30116  99.3974  66.4485 0020668 317.5550 169.4348 14.29331484976247"}}, "geometry": {"type": "Point", "coordinates": [-138.34182112494196, -68.7415097099162]}}, {"type": "Feature", "properties": {"norad_id": 30117, "name": "FENGYUN 1C DEB", "group": "fengyun-1c-debris", "lat": -40.51944618895902, "lon": 155.78692077877827, "alt_km": 778.25497747193, "timestamp": "2025-12-21T03:56:51.110352+00:00", "meta": {"OBJECT_NAME": "FENGYUN 1C DEB", "OBJECT_ID": "1999-025RW", "EPOCH": "2025-12-20T17:33:04.485024", "MEAN_MOTION": 14.07166588, "ECCENTRICITY": 0.016401, "INCLINATION": 98.8046, "RA_OF_ASC_NODE": 342.9768, "ARG_OF_PERICENTER": 186.6189, "MEAN_ANOMALY": 0.1324, "EPHEMERIS_TYPE": 0, "CLASSIFICATION_TYPE": "U", "NORAD_CAT_ID": 30117, "ELEMENT_SET_NO": 999, "REV_AT_EPOCH": 97101, "BSTAR": 0.00022614, "MEAN_MOTION_DOT": 3.85e-06, "MEAN_MOTION_DDOT": 0}, "tle": {"line1": "1 30117U 99025RW  25354.73130191  .00000385  00000+0  22614-3 0  9994", "line2": "2 30117  98.8046 342.9768 0164010 186.6189   0.1324 14.07166588971013"}}, "geometry": {"type": "Point", "coordinates": [155.78692077877827, -40.51944618895902]}}, {"type": "Feature", "properties": {"norad_id": 30118, "name": "FENGYUN 1C DEB", "group": "fengyun-1c-debris", "lat": -68.49487087539592, "lon": 155.49620155887288, "alt_km": 934.4602606278795, "timestamp": "2025-12-21T03:56:51.110361+00:00", "meta": {"OBJECT_NAME": "FENGYUN 1C DEB", "OBJECT_ID": "1999-025RX", "EPOCH": "2025-12-20T13:39:52.411968", "MEAN_MOTION": 14.05124332, "ECCENTRICITY": 0.0085123, "INCLINATION": 98.8029, "RA_OF_ASC_NODE": 358.0773, "ARG_OF_PERICENTER": 38.0692, "MEAN_ANOMALY": 84.0029, "EPHEMERIS_TYPE": 0, "CLASSIFICATION_TYPE": "U", "NORAD_CAT_ID": 30118, "ELEMENT_SET_NO": 999, "REV_AT_EPOCH": 97041, "BSTAR": -9.6267e-06, "MEAN_MOTION_DOT": -5.8e-07, "MEAN_MOTION_DDOT": 0}, "tle": {"line1": "1 30118U 99025RX  25354.56935662 -.00000058  00000+0 -96267-5 0  9998", "line2": "2 30118  98.8029 358.0773 0085123  38.0692  84.0029 14.05124332970410"}}, "geometry": {"type": "Point", "coordinates": [155.49620155887288, -68.49487087539592]}}, {"type": "Feature", "properties": {"norad_id": 30119, "name": "FENGYUN 1C DEB", "group": "fengyun-1c-debris", "lat": -11.475655120796795, "lon": -10.090718161586468, "alt_km": 805.3974420000031, "timestamp": "2025-12-21T03:56:51.110370+00:00", "meta": {"OBJECT_NAME": "FENGYUN 1C DEB", "OBJECT_ID": "1999-025RY", "EPOCH": "2025-12-19T23:25:05.369376", "MEAN_MOTION": 14.22285477, "ECCENTRICITY": 0.0130759, "INCLINATION": 97.9201, "RA_OF_ASC_NODE": 347.2211, "ARG_OF_PERICENTER": 271.4194, "MEAN_ANOMALY": 112.6005, "EPHEMERIS_TYPE": 0, "CLASSIFICATION_TYPE": "U", "NORAD_CAT_ID": 30119, "ELEMENT_SET_NO": 999, "REV_AT_EPOCH": 97283, "BSTAR": 0.00098239, "MEAN_MOTION_DOT": 2.343e-05, "MEAN_MOTION_DDOT": 0}, "tle": {"line1": "1 30119U 99025RY  25353.97575659  .00002343  00000+0  98239-3 0  9995", "line2": "2 30119  97.9201 347.2211 0130759 271.4194 112.6005 14.22285477972833"}}, "geometry": {"type": "Point", "coordinates": [-10.090718161586468, -11.475655120796795]}}, {"type": "Feature", "properties": {"norad_id": 30120, "name": "FENGYUN 1C DEB", "group": "fengyun-1c-debris", "lat": 67.76286644063649, "lon": -80.42403434682313, "alt_km": 782.3280135568893, "timestamp": "2025-12-21T03:56:51.110379+00:00", "meta": {"OBJECT_NAME": "FENGYUN 1C DEB", "OBJECT_ID": "1999-025RZ", "EPOCH": "2025-12-19T16:49:33.388032", "MEAN_MOTION": 14.27663199, "ECCENTRICITY": 0.0063849, "INCLINATION": 98.852, "RA_OF_ASC_NODE": 75.6883, "ARG_OF_PERICENTER": 191.7215, "MEAN_ANOMALY": 322.3881, "EPHEMERIS_TYPE": 0, "CLASSIFICATION_TYPE": "U", "NORAD_CAT_ID": 30120, "ELEMENT_SET_NO": 999, "REV_AT_EPOCH": 97470, "BSTAR": 0.0013034782, "MEAN_MOTION_DOT": 3.239e-05, "MEAN_MOTION_DDOT": 0}, "tle": {"line1": "1 30120U 99025RZ  25353.70108088  .00003239  00000+0  13035-2 0  9991", "line2": "2 30120  98.8520  75.6883 0063849 191.7215 322.3881 14.27663199974705"}}, "geometry": {"type": "Point", "coordinates": [-80.42403434682313, 67.76286644063649]}}]}